IRIDIUM 119             
1 42959U 17061E   24311.60599173  .00001502  00000+0  52909-3 0  9990
2 42959  86.3931 270.7541 0002675  88.7448 271.4054 14.34227906370591
IRIDIUM 107             
1 42960U 17061F   24311.41572643  .00001080  00000+0  37871-3 0  9996
2 42960  86.3932 270.8513 0002574  82.2151 277.9337 14.34217705370571
IRIDIUM 132             
1 42961U 17061G   24311.42206696  .00000829  00000+0  28898-3 0  9999
2 42961  86.3931 270.8325 0002478  83.1111 277.0366 14.34219344370575
IRIDIUM 136             
1 42962U 17061H   24311.59331062  .00001151  00000+0  40399-3 0  9993
2 42962  86.3930 270.7637 0002338  84.3584 275.7878 14.34217290370618
IRIDIUM 139             
1 42963U 17061J   24311.32057802  .00000896  00000+0  31276-3 0  9991
2 42963  86.3935 270.9316 0002627  85.5706 274.5790 14.34224035370581
IRIDIUM 125             
1 42964U 17061K   24311.37767075  .00000030  00000+0  34757-5 0  9996
2 42964  86.3936 270.9572 0002778  92.9706 267.1808 14.34212677370606
IRIDIUM 135             
1 43070U 17083A   24311.70063043  .00000114  00000+0  33634-4 0  9995
2 43070  86.4027 207.5131 0001996  82.9327 277.2095 14.34213841359941
IRIDIUM 138             
1 43071U 17083B   24311.16786095  .00001161  00000+0  40738-3 0  9990
2 43071  86.4015 207.4350 0002195  99.2598 260.8847 14.34220967359854
